OBJECT_NAME,OBJECT_ID,EPOCH,MEAN_MOTION,ECCENTRICITY,INCLINATION,RA_OF_ASC_NODE,ARG_OF_PERICENTER,MEAN_ANOMALY,EPHEMERIS_TYPE,CLASSIFICATION_TYPE,NORAD_CAT_ID,ELEMENT_SET_NO,REV_AT_EPOCH,BSTAR,MEAN_MOTION_DOT,MEAN_MOTION_DDOT
IRIDIUM 156,2018-061H,2026-07-17T12:52:34.400928,14.34218145,.0002122,86.3936,44.0332,93.0957,267.0481,0,U,43576,999,41772,.17248E-4,.68E-6,0
IRIDIUM 164,2018-061J,2026-07-17T12:25:10.498368,14.34218454,.000236,86.3938,44.0823,89.1459,271.0007,0,U,43577,999,41776,.24593E-4,.89E-6,0
IRIDIUM 159,2018-061K,2026-07-17T13:19:58.442592,14.34217736,.0002128,86.3935,44.0025,85.9032,274.2407,0,U,43578,999,41773,.1064E-4,.5E-6,0
IRIDIUM 180,2019-002A,2026-07-17T16:40:10.945632,14.34217997,.0002168,86.3995,340.8447,91.2531,268.8913,0,U,43922,999,39336,.32307E-4,.11E-5,0
IRIDIUM 176,2019-002B,2026-07-17T16:14:18.658176,14.72250797,.0002333,86.6114,340.7912,90.5041,269.6443,0,U,43923,999,40373,.5439E-4,.368E-5,0
IRIDIUM 168,2019-002C,2026-07-17T16:31:03.059040,14.34216834,.0002185,86.3996,340.9251,90.4704,269.6742,0,U,43924,999,39334,-.1403E-6,.19E-6,0
IRIDIUM 173,2019-002D,2026-07-17T16:12:46.967040,14.34217614,.0002013,86.3987,340.8186,92.2031,267.9396,0,U,43925,999,39332,-.30561E-4,-.66E-6,0
IRIDIUM 169,2019-002E,2026-07-17T05:32:15.152352,14.38613573,.0001962,86.4223,12.6286,104.3780,255.7636,0,U,43926,999,39454,.13169E-4,.6E-6,0
IRIDIUM 172,2019-002F,2026-07-17T11:02:14.993664,14.34217822,.0002168,86.3993,340.9164,91.3603,268.7841,0,U,43927,999,39330,.10812E-4,.5E-6,0
IRIDIUM 175,2019-002G,2026-07-17T15:15:15.374304,14.43627949,.000542,86.4511,277.7942,110.7505,249.4277,0,U,43928,999,40337,.42066E-4,.163E-5,0
IRIDIUM 171,2019-002H,2026-07-17T08:54:22.959648,14.34217865,.0002251,86.4002,341.2627,94.8143,265.3310,0,U,43929,999,39328,.12066E-4,.54E-6,0
IRIDIUM 170,2019-002J,2026-07-17T09:51:41.983776,14.72251266,.0002233,86.6113,340.9045,87.1114,273.0358,0,U,43930,999,40370,.55814E-4,.377E-5,0
IRIDIUM 167,2019-002K,2026-07-17T08:45:14.959008,14.34217763,.0002335,86.3994,340.9788,98.4078,261.7382,0,U,43931,999,39328,.56718E-5,.36E-6,0
IRIDIUM 181,2023-068S,2026-07-17T16:20:13.841664,14.43307841,.0002398,86.4476,44.0380,84.5617,275.5857,0,U,56726,999,16683,.25149E-4,.105E-5,0
IRIDIUM 177,2023-068T,2026-07-17T14:39:51.772032,14.80026120,.0002201,86.1987,314.3476,96.7317,263.4154,0,U,56727,999,17086,.66305E-4,.528E-5,0
IRIDIUM 174,2023-068U,2026-07-17T16:05:15.328320,14.72259865,.0001988,86.6122,340.9463,89.6924,270.4521,0,U,56728,999,17050,.53078E-4,.359E-5,0
IRIDIUM 178,2023-068V,2026-07-17T11:09:18.186912,14.80028456,.0002271,86.6536,12.7051,90.8878,269.2603,0,U,56729,999,17084,.18914E-4,.169E-5,0
IRIDIUM 179,2023-068W,2026-07-17T12:38:57.806016,14.80023268,.0002361,86.6767,21.7480,93.5148,266.6344,0,U,56730,999,17085,.68784E-5,.78E-6,0
