IRIDIUM 156             
1 43576U 18061H   26198.53650927  .00000068  00000+0  17248-4 0  9993
2 43576  86.3936  44.0332 0002122  93.0957 267.0481 14.34218145417720
IRIDIUM 164             
1 43577U 18061J   26198.51748262  .00000089  00000+0  24593-4 0  9996
2 43577  86.3938  44.0823 0002360  89.1459 271.0007 14.34218454417761
IRIDIUM 159             
1 43578U 18061K   26198.55553753  .00000050  00000+0  10640-4 0  9996
2 43578  86.3935  44.0025 0002128  85.9032 274.2407 14.34217736417734
IRIDIUM 180             
1 43922U 19002A   26198.69457113  .00000110  00000+0  32307-4 0  9994
2 43922  86.3995 340.8447 0002168  91.2531 268.8913 14.34217997393368
IRIDIUM 176             
1 43923U 19002B   26198.67660484  .00000368  00000+0  54390-4 0  9991
2 43923  86.6114 340.7912 0002333  90.5041 269.6443 14.72250797403730
IRIDIUM 168             
1 43924U 19002C   26198.68822985  .00000019  00000+0 -14030-6 0  9992
2 43924  86.3996 340.9251 0002185  90.4704 269.6742 14.34216834393343
IRIDIUM 173             
1 43925U 19002D   26198.67554360 -.00000066  00000+0 -30561-4 0  9999
2 43925  86.3987 340.8186 0002013  92.2031 267.9396 14.34217614393324
IRIDIUM 169             
1 43926U 19002E   26198.23073093  .00000060  00000+0  13169-4 0  9998
2 43926  86.4223  12.6286 0001962 104.3780 255.7636 14.38613573394547
IRIDIUM 172             
1 43927U 19002F   26198.45989576  .00000050  00000+0  10812-4 0  9996
2 43927  86.3993 340.9164 0002168  91.3603 268.7841 14.34217822393309
IRIDIUM 175             
1 43928U 19002G   26198.63559461  .00000163  00000+0  42066-4 0  9994
2 43928  86.4511 277.7942 0005420 110.7505 249.4277 14.43627949403372
IRIDIUM 171             
1 43929U 19002H   26198.37109907  .00000054  00000+0  12066-4 0  9998
2 43929  86.4002 341.2627 0002251  94.8143 265.3310 14.34217865393289
IRIDIUM 170             
1 43930U 19002J   26198.41090259  .00000377  00000+0  55814-4 0  9990
2 43930  86.6113 340.9045 0002233  87.1114 273.0358 14.72251266403701
IRIDIUM 167             
1 43931U 19002K   26198.36475647  .00000036  00000+0  56718-5 0  9990
2 43931  86.3994 340.9788 0002335  98.4078 261.7382 14.34217763393281
IRIDIUM 181             
1 56726U 23068S   26198.68071576  .00000105  00000+0  25149-4 0  9991
2 56726  86.4476  44.0380 0002398  84.5617 275.5857 14.43307841166833
IRIDIUM 177             
1 56727U 23068T   26198.61101588  .00000528  00000+0  66305-4 0  9990
2 56727  86.1987 314.3476 0002201  96.7317 263.4154 14.80026120170865
IRIDIUM 174             
1 56728U 23068U   26198.67031630  .00000359  00000+0  53078-4 0  9992
2 56728  86.6122 340.9463 0001988  89.6924 270.4521 14.72259865170501
IRIDIUM 178             
1 56729U 23068V   26198.46479383  .00000169  00000+0  18914-4 0  9990
2 56729  86.6536  12.7051 0002271  90.8878 269.2603 14.80028456170849
IRIDIUM 179             
1 56730U 23068W   26198.52705794  .00000078  00000+0  68784-5 0  9997
2 56730  86.6767  21.7480 0002361  93.5148 266.6344 14.80023268170853
